#cP2017  2 14  0  0  0.00000000       2 ORBIT IGS14 HLM  IGS
## 1936 172800.00000000   900.00000000 57798 0.0000000000000
+   32   G01G02G03G04G05G06G07G08G09G10G11G12G13G14G15G16G17
+        G18G19G20G21G22G23G24G25G26G27G28G29G30G31G32  0  0